{"type": "FeatureCollection", "features": [ {"type": "Feature", "properties": {"norad_id": 30035, "name": "FENGYUN 1C DEB", "group": "fengyun-1c-debris", "lat": 37.89730732575611, "lon": -113.65083241330996, "alt_km": 706.2894682273918, "timestamp": "2025-12-05T09:41:19.402988+00:00", "meta": {"OBJECT_NAME": "FENGYUN 1C DEB", "OBJECT_ID": "1999-025NL", "EPOCH": "2025-12-04T17:04:15.703968", "MEAN_MOTION": 14.36968823, "ECCENTRICITY": 0.0115682, "INCLINATION": 99.27, "RA_OF_ASC_NODE": 252.9077, "ARG_OF_PERICENTER": 85.1352, "MEAN_ANOMALY": 334.5159, "EPHEMERIS_TYPE": 0, "CLASSIFICATION_TYPE": "U", "NORAD_CAT_ID": 30035, "ELEMENT_SET_NO": 999, "REV_AT_EPOCH": 99008, "BSTAR": 0.00013203, "MEAN_MOTION_DOT": 3.7e-06, "MEAN_MOTION_DDOT": 0}, "tle": {"line1": "1 30035U 99025NL  25338.71129287  .00000370  00000+0  13203-3 0  9995", "line2": "2 30035  99.2700 252.9077 0115682  85.1352 334.5159 14.36968823990085"}}, "geometry": {"type": "Point", "coordinates": [-113.65083241330996, 37.89730732575611]}}, {"type": "Feature", "properties": {"norad_id": 30036, "name": "FENGYUN 1C DEB", "group": "fengyun-1c-debris", "lat": -68.41144010120719, "lon": 165.1703014134249, "alt_km": 618.2654326066104, "timestamp": "2025-12-05T09:41:19.402998+00:00", "meta": {"OBJECT_NAME": "FENGYUN 1C DEB", "OBJECT_ID": "1999-025NM", "EPOCH": "2025-12-04T01:14:27.069216", "MEAN_MOTION": 14.46130255, "ECCENTRICITY": 0.01896434, "INCLINATION": 98.2535, "RA_OF_ASC_NODE": 5.3731, "ARG_OF_PERICENTER": 234.2413, "MEAN_ANOMALY": 180.4868, "EPHEMERIS_TYPE": 0, "CLASSIFICATION_TYPE": "U", "NORAD_CAT_ID": 30036, "ELEMENT_SET_NO": 999, "REV_AT_EPOCH": 99051, "BSTAR": 0.00088317267, "MEAN_MOTION_DOT": 3.893e-05, "MEAN_MOTION_DDOT": 0}, "tle": {"line1": "1 30036U 99025NM  25338.05170219  .00003893  00000+0  88317-3 0  9995", "line2": "2 30036  98.2535   5.3731 0189643 234.2413 180.4868 14.46130255990515"}}, "geometry": {"type": "Point", "coordinates": [165.1703014134249, -68.41144010120719]}}, {"type": "Feature", "properties": {"norad_id": 30037, "name": "FENGYUN 1C DEB", "group": "fengyun-1c-debris", "lat": -60.70130712179408, "lon": 120.10595235073455, "alt_km": 905.777017891407, "timestamp": "2025-12-05T09:41:19.403008+00:00", "meta": {"OBJECT_NAME": "FENGYUN 1C DEB", "OBJECT_ID": "1999-025NN", "EPOCH": "2025-12-04T04:23:59.205696", "MEAN_MOTION": 14.34100309, "ECCENTRICITY": 0.0174655, "INCLINATION": 98.3826, "RA_OF_ASC_NODE": 314.1567, "ARG_OF_PERICENTER": 80.4124, "MEAN_ANOMALY": 343.962, "EPHEMERIS_TYPE": 0, "CLASSIFICATION_TYPE": "U", "NORAD_CAT_ID": 30037, "ELEMENT_SET_NO": 999, "REV_AT_EPOCH": 98665, "BSTAR": 0.00032682171, "MEAN_MOTION_DOT": 1.04e-05, "MEAN_MOTION_DDOT": 0}, "tle": {"line1": "1 30037U 99025NN  25338.18332414  .00001040  00000+0  32682-3 0  9993", "line2": "2 30037  98.3826 314.1567 0174655  80.4124 343.9620 14.34100309986651"}}, "geometry": {"type": "Point", "coordinates": [120.10595235073455, -60.70130712179408]}}, {"type": "Feature", "properties": {"norad_id": 30038, "name": "FENGYUN 1C DEB", "group": "fengyun-1c-debris", "lat": 42.963147666854915, "lon": 155.07878381454736, "alt_km": 576.7896589621814, "timestamp": "2025-12-05T09:41:19.403019+00:00", "meta": {"OBJECT_NAME": "FENGYUN 1C DEB", "OBJECT_ID": "1999-025NP", "EPOCH": "2025-12-04T11:57:29.270016", "MEAN_MOTION": 14.39270128, "ECCENTRICITY": 0.0257865, "INCLINATION": 98.3676, "RA_OF_ASC_NODE": 326.3154, "ARG_OF_PERICENTER": 127.4691, "MEAN_ANOMALY": 359.6123, "EPHEMERIS_TYPE": 0, "CLASSIFICATION_TYPE": "U", "NORAD_CAT_ID": 30038, "ELEMENT_SET_NO": 999, "REV_AT_EPOCH": 98772, "BSTAR": 0.00034551, "MEAN_MOTION_DOT": 1.533e-05, "MEAN_MOTION_DDOT": 0}, "tle": {"line1": "1 30038U 99025NP  25338.49825544  .00001533  00000+0  34551-3 0  9993", "line2": "2 30038  98.3676 326.3154 0257865 127.4691 359.6123 14.39270128987721"}}, "geometry": {"type": "Point", "coordinates": [155.07878381454736, 42.963147666854915]}}, {"type": "Feature", "properties": {"norad_id": 30040, "name": "FENGYUN 1C DEB", "group": "fengyun-1c-debris", "lat": -38.41279858530857, "lon": 2.691967160917726, "alt_km": 752.1112004691258, "timestamp": "2025-12-05T09:41:19.403029+00:00", "meta": {"OBJECT_NAME": "FENGYUN 1C DEB", "OBJECT_ID": "1999-025NR", "EPOCH": "2025-12-04T12:50:59.505216", "MEAN_MOTION": 14.36992041, "ECCENTRICITY": 0.0032769, "INCLINATION": 98.2336, "RA_OF_ASC_NODE": 355.2682, "ARG_OF_PERICENTER": 338.1848, "MEAN_ANOMALY": 173.9028, "EPHEMERIS_TYPE": 0, "CLASSIFICATION_TYPE": "U", "NORAD_CAT_ID": 30040, "ELEMENT_SET_NO": 999, "REV_AT_EPOCH": 97810, "BSTAR": 0.0038081, "MEAN_MOTION_DOT": 0.00011332, "MEAN_MOTION_DDOT": 0}, "tle": {"line1": "1 30040U 99025NR  25338.53541094  .00011332  00000+0  38081-2 0  9995", "line2": "2 30040  98.2336 355.2682 0032769 338.1848 173.9028 14.36992041978107"}}, "geometry": {"type": "Point", "coordinates": [2.691967160917726, -38.41279858530857]}}, {"type": "Feature", "properties": {"norad_id": 30041, "name": "FENGYUN 1C DEB", "group": "fengyun-1c-debris", "lat": 6.7350157835794455, "lon": -93.38883301754585, "alt_km": 839.7304030389832, "timestamp": "2025-12-05T09:41:19.403040+00:00", "meta": {"OBJECT_NAME": "FENGYUN 1C DEB", "OBJECT_ID": "1999-025NS", "EPOCH": "2025-12-04T05:58:25.550976", "MEAN_MOTION": 14.13161755, "ECCENTRICITY": 0.0034486, "INCLINATION": 99.4673, "RA_OF_ASC_NODE": 84.2615, "ARG_OF_PERICENTER": 240.7966, "MEAN_ANOMALY": 180.9629, "EPHEMERIS_TYPE": 0, "CLASSIFICATION_TYPE": "U", "NORAD_CAT_ID": 30041, "ELEMENT_SET_NO": 999, "REV_AT_EPOCH": 97167, "BSTAR": 0.00090312, "MEAN_MOTION_DOT": 1.649e-05, "MEAN_MOTION_DDOT": 0}, "tle": {"line1": "1 30041U 99025NS  25338.24890684  .00001649  00000+0  90312-3 0  9992", "line2": "2 30041  99.4673  84.2615 0034486 240.7966 180.9629 14.13161755971672"}}, "geometry": {"type": "Point", "coordinates": [-93.38883301754585, 6.7350157835794455]}}, {"type": "Feature", "properties": {"norad_id": 30043, "name": "FENGYUN 1C DEB", "group": "fengyun-1c-debris", "lat": -79.29393981545033, "lon": 130.91972544876754, "alt_km": 931.3674623833531, "timestamp": "2025-12-05T09:41:19.403050+00:00", "meta": {"OBJECT_NAME": "FENGYUN 1C DEB", "OBJECT_ID": "1999-025NU", "EPOCH": "2025-12-04T12:10:12.163008", "MEAN_MOTION": 14.2347449, "ECCENTRICITY": 0.0283862, "INCLINATION": 98.6281, "RA_OF_ASC_NODE": 76.6124, "ARG_OF_PERICENTER": 154.8588, "MEAN_ANOMALY": 206.6725, "EPHEMERIS_TYPE": 0, "CLASSIFICATION_TYPE": "U", "NORAD_CAT_ID": 30043, "ELEMENT_SET_NO": 999, "REV_AT_EPOCH": 97228, "BSTAR": 0.0027536, "MEAN_MOTION_DOT": 9.456e-05, "MEAN_MOTION_DDOT": 0}, "tle": {"line1": "1 30043U 99025NU  25338.50708522  .00009456  00000+0  27536-2 0  9993", "line2": "2 30043  98.6281  76.6124 0283862 154.8588 206.6725 14.23474490972284"}}, "geometry": {"type": "Point", "coordinates": [130.91972544876754, -79.29393981545033]}}, {"type": "Feature", "properties": {"norad_id": 30044, "name": "FENGYUN 1C DEB", "group": "fengyun-1c-debris", "lat": 16.107021452611573, "lon": 82.26497840041202, "alt_km": 674.3720604715454, "timestamp": "2025-12-05T09:41:19.403061+00:00", "meta": {"OBJECT_NAME": "FENGYUN 1C DEB", "OBJECT_ID": "1999-025NV", "EPOCH": "2025-12-04T11:24:41.624928", "MEAN_MOTION": 14.50481501, "ECCENTRICITY": 0.0079057, "INCLINATION": 98.2114, "RA_OF_ASC_NODE": 258.9698, "ARG_OF_PERICENTER": 193.1469, "MEAN_ANOMALY": 166.7666, "EPHEMERIS_TYPE": 0, "CLASSIFICATION_TYPE": "U", "NORAD_CAT_ID": 30044, "ELEMENT_SET_NO": 999, "REV_AT_EPOCH": 97919, "BSTAR": 0.004682, "MEAN_MOTION_DOT": 0.0001907, "MEAN_MOTION_DDOT": 0}, "tle": {"line1": "1 30044U 99025NV  25338.47548177  .00019070  00000+0  46820-2 0  9998", "line2": "2 30044  98.2114 258.9698 0079057 193.1469 166.7666 14.50481501979198"}}, "geometry": {"type": "Point", "coordinates": [82.26497840041202, 16.107021452611573]}}, {"type": "Feature", "properties": {"norad_id": 30045, "name": "FENGYUN 1C DEB", "group": "fengyun-1c-debris", "lat": 10.581222764084368, "lon": 12.951443884942835, "alt_km": 858.7430289991971, "timestamp": "2025-12-05T09:41:19.403071+00:00", "meta": {"OBJECT_NAME": "FENGYUN 1C DEB", "OBJECT_ID": "1999-025NW", "EPOCH": "2025-12-04T15:38:38.619168", "MEAN_MOTION": 14.21496054, "ECCENTRICITY": 0.0095341, "INCLINATION": 99.1794, "RA_OF_ASC_NODE": 13.9009, "ARG_OF_PERICENTER": 136.1208, "MEAN_ANOMALY": 350.1893, "EPHEMERIS_TYPE": 0, "CLASSIFICATION_TYPE": "U", "NORAD_CAT_ID": 30045, "ELEMENT_SET_NO": 999, "REV_AT_EPOCH": 96573, "BSTAR": 0.0041997, "MEAN_MOTION_DOT": 9.59e-05, "MEAN_MOTION_DDOT": 0}, "tle": {"line1": "1 30045U 99025NW  25338.65183587  .00009590  00000+0  41997-2 0  9995", "line2": "2 30045  99.1794  13.9009 0095341 136.1208 350.1893 14.21496054965733"}}, "geometry": {"type": "Point", "coordinates": [12.951443884942835, 10.581222764084368]}}, {"type": "Feature", "properties": {"norad_id": 30047, "name": "FENGYUN 1C DEB", "group": "fengyun-1c-debris", "lat": -53.16151498671849, "lon": 149.36228029040572, "alt_km": 846.406895111727, "timestamp": "2025-12-05T09:41:19.403082+00:00", "meta": {"OBJECT_NAME": "FENGYUN 1C DEB", "OBJECT_ID": "1999-025NY", "EPOCH": "2025-12-04T10:05:43.962144", "MEAN_MOTION": 13.94333875, "ECCENTRICITY": 0.0125679, "INCLINATION": 99.9192, "RA_OF_ASC_NODE": 134.7996, "ARG_OF_PERICENTER": 344.9697, "MEAN_ANOMALY": 69.7086, "EPHEMERIS_TYPE": 0, "CLASSIFICATION_TYPE": "U", "NORAD_CAT_ID": 30047, "ELEMENT_SET_NO": 999, "REV_AT_EPOCH": 95800, "BSTAR": 0.00090015, "MEAN_MOTION_DOT": 1.227e-05, "MEAN_MOTION_DDOT": 0}, "tle": {"line1": "1 30047U 99025NY  25338.42064771  .00001227  00000+0  90015-3 0  9990", "line2": "2 30047  99.9192 134.7996 0125679 344.9697  69.7086 13.94333875958000"}}, "geometry": {"type": "Point", "coordinates": [149.36228029040572, -53.16151498671849]}}]}